{"type": "FeatureCollection", "features": [ {"type": "Feature", "properties": {"norad_id": 34529, "name": "IRIDIUM 33 DEB", "group": "iridium-33-debris", "lat": 1.3233412880195234, "lon": -143.8409139069896, "alt_km": 756.1562612716925, "timestamp": "2025-12-10T18:57:00.450410+00:00", "meta": {"OBJECT_NAME": "IRIDIUM 33 DEB", "OBJECT_ID": "1997-051HW", "EPOCH": "2025-12-10T09:47:19.467744", "MEAN_MOTION": 14.40613002, "ECCENTRICITY": 0.0004504, "INCLINATION": 86.3643, "RA_OF_ASC_NODE": 36.4059, "ARG_OF_PERICENTER": 184.9511, "MEAN_ANOMALY": 175.1644, "EPHEMERIS_TYPE": 0, "CLASSIFICATION_TYPE": "U", "NORAD_CAT_ID": 34529, "ELEMENT_SET_NO": 999, "REV_AT_EPOCH": 88108, "BSTAR": 0.000181, "MEAN_MOTION_DOT": 5.97e-06, "MEAN_MOTION_DDOT": 0}, "tle": {"line1": "1 34529U 97051HW  25344.40786421  .00000597  00000+0  18100-3 0  9998", "line2": "2 34529  86.3643  36.4059 0004504 184.9511 175.1644 14.40613002881088"}}, "geometry": {"type": "Point", "coordinates": [-143.8409139069896, 1.3233412880195234]}}, {"type": "Feature", "properties": {"norad_id": 34538, "name": "IRIDIUM 33 DEB", "group": "iridium-33-debris", "lat": 1.491521676657699, "lon": 6.507295734076886, "alt_km": 731.6282777632414, "timestamp": "2025-12-10T18:57:00.450420+00:00", "meta": {"OBJECT_NAME": "IRIDIUM 33 DEB", "OBJECT_ID": "1997-051JF", "EPOCH": "2025-12-10T02:34:36.380064", "MEAN_MOTION": 14.42622589, "ECCENTRICITY": 0.00330991, "INCLINATION": 86.2772, "RA_OF_ASC_NODE": 6.7088, "ARG_OF_PERICENTER": 336.9894, "MEAN_ANOMALY": 83.6155, "EPHEMERIS_TYPE": 0, "CLASSIFICATION_TYPE": "U", "NORAD_CAT_ID": 34538, "ELEMENT_SET_NO": 999, "REV_AT_EPOCH": 87718, "BSTAR": 0.001246863, "MEAN_MOTION_DOT": 4.187e-05, "MEAN_MOTION_DDOT": 0}, "tle": {"line1": "1 34538U 97051JF  25344.10736551  .00004187  00000+0  12469-2 0  9994", "line2": "2 34538  86.2772   6.7088 0033099 336.9894  83.6155 14.42622589877184"}}, "geometry": {"type": "Point", "coordinates": [6.507295734076886, 1.491521676657699]}}, {"type": "Feature", "properties": {"norad_id": 34540, "name": "IRIDIUM 33 DEB", "group": "iridium-33-debris", "lat": -10.865701883861034, "lon": 129.2079819031605, "alt_km": 638.5384429119194, "timestamp": "2025-12-10T18:57:00.450430+00:00", "meta": {"OBJECT_NAME": "IRIDIUM 33 DEB", "OBJECT_ID": "1997-051JH", "EPOCH": "2025-12-10T09:02:54.464064", "MEAN_MOTION": 14.75237983, "ECCENTRICITY": 0.0016009, "INCLINATION": 86.3107, "RA_OF_ASC_NODE": 308.6869, "ARG_OF_PERICENTER": 167.5274, "MEAN_ANOMALY": 353.4924, "EPHEMERIS_TYPE": 0, "CLASSIFICATION_TYPE": "U", "NORAD_CAT_ID": 34540, "ELEMENT_SET_NO": 999, "REV_AT_EPOCH": 88986, "BSTAR": 0.0024708, "MEAN_MOTION_DOT": 0.00016789, "MEAN_MOTION_DDOT": 0}, "tle": {"line1": "1 34540U 97051JH  25344.37701926  .00016789  00000+0  24708-2 0  9994", "line2": "2 34540  86.3107 308.6869 0016009 167.5274 353.4924 14.75237983889869"}}, "geometry": {"type": "Point", "coordinates": [129.2079819031605, -10.865701883861034]}}, {"type": "Feature", "properties": {"norad_id": 34648, "name": "IRIDIUM 33 DEB", "group": "iridium-33-debris", "lat": 66.46520160479882, "lon": -68.93348640541849, "alt_km": 916.4078135236687, "timestamp": "2025-12-10T18:57:00.450440+00:00", "meta": {"OBJECT_NAME": "IRIDIUM 33 DEB", "OBJECT_ID": "1997-051JZ", "EPOCH": "2025-12-10T06:43:30.393696", "MEAN_MOTION": 14.11372346, "ECCENTRICITY": 0.0183532, "INCLINATION": 86.3905, "RA_OF_ASC_NODE": 282.939, "ARG_OF_PERICENTER": 306.5499, "MEAN_ANOMALY": 51.8907, "EPHEMERIS_TYPE": 0, "CLASSIFICATION_TYPE": "U", "NORAD_CAT_ID": 34648, "ELEMENT_SET_NO": 999, "REV_AT_EPOCH": 84926, "BSTAR": 0.012661, "MEAN_MOTION_DOT": 0.00026918, "MEAN_MOTION_DDOT": 0}, "tle": {"line1": "1 34648U 97051JZ  25344.28021289  .00026918  00000+0  12661-1 0  9999", "line2": "2 34648  86.3905 282.9390 0183532 306.5499  51.8907 14.11372346849260"}}, "geometry": {"type": "Point", "coordinates": [-68.93348640541849, 66.46520160479882]}}, {"type": "Feature", "properties": {"norad_id": 34651, "name": "IRIDIUM 33 DEB", "group": "iridium-33-debris", "lat": 22.21554729341909, "lon": 142.9275003275209, "alt_km": 906.7861307229559, "timestamp": "2025-12-10T18:57:00.450450+00:00", "meta": {"OBJECT_NAME": "IRIDIUM 33 DEB", "OBJECT_ID": "1997-051KC", "EPOCH": "2025-12-10T10:25:16.423104", "MEAN_MOTION": 14.25753499, "ECCENTRICITY": 0.0142039, "INCLINATION": 86.2848, "RA_OF_ASC_NODE": 141.558, "ARG_OF_PERICENTER": 211.2926, "MEAN_ANOMALY": 147.9755, "EPHEMERIS_TYPE": 0, "CLASSIFICATION_TYPE": "U", "NORAD_CAT_ID": 34651, "ELEMENT_SET_NO": 999, "REV_AT_EPOCH": 85863, "BSTAR": 0.005394, "MEAN_MOTION_DOT": 0.00014272, "MEAN_MOTION_DDOT": 0}, "tle": {"line1": "1 34651U 97051KC  25344.43421786  .00014272  00000+0  53940-2 0  9992", "line2": "2 34651  86.2848 141.5580 0142039 211.2926 147.9755 14.25753499858630"}}, "geometry": {"type": "Point", "coordinates": [142.9275003275209, 22.21554729341909]}}, {"type": "Feature", "properties": {"norad_id": 34652, "name": "IRIDIUM 33 DEB", "group": "iridium-33-debris", "lat": 0.9882622643656512, "lon": 160.8064137123657, "alt_km": 700.6442393383559, "timestamp": "2025-12-10T18:57:00.450461+00:00", "meta": {"OBJECT_NAME": "IRIDIUM 33 DEB", "OBJECT_ID": "1997-051KD", "EPOCH": "2025-12-09T11:37:22.959264", "MEAN_MOTION": 14.62008914, "ECCENTRICITY": 0.00262076, "INCLINATION": 86.3314, "RA_OF_ASC_NODE": 341.4507, "ARG_OF_PERICENTER": 310.1115, "MEAN_ANOMALY": 203.3524, "EPHEMERIS_TYPE": 0, "CLASSIFICATION_TYPE": "U", "NORAD_CAT_ID": 34652, "ELEMENT_SET_NO": 999, "REV_AT_EPOCH": 88436, "BSTAR": 0.0015009226, "MEAN_MOTION_DOT": 7.584e-05, "MEAN_MOTION_DDOT": 0}, "tle": {"line1": "1 34652U 97051KD  25343.48429351  .00007584  00000+0  15009-2 0  9995", "line2": "2 34652  86.3314 341.4507 0026207 310.1115 203.3524 14.62008914884363"}}, "geometry": {"type": "Point", "coordinates": [160.8064137123657, 0.9882622643656512]}}, {"type": "Feature", "properties": {"norad_id": 34690, "name": "IRIDIUM 33 DEB", "group": "iridium-33-debris", "lat": 86.2775714485029, "lon": 141.0365994223081, "alt_km": 697.1484292367177, "timestamp": "2025-12-10T18:57:00.450471+00:00", "meta": {"OBJECT_NAME": "IRIDIUM 33 DEB", "OBJECT_ID": "1997-051KM", "EPOCH": "2025-12-09T15:10:43.095936", "MEAN_MOTION": 14.55078564, "ECCENTRICITY": 0.001121, "INCLINATION": 86.378, "RA_OF_ASC_NODE": 38.3417, "ARG_OF_PERICENTER": 38.8624, "MEAN_ANOMALY": 114.3139, "EPHEMERIS_TYPE": 0, "CLASSIFICATION_TYPE": "U", "NORAD_CAT_ID": 34690, "ELEMENT_SET_NO": 999, "REV_AT_EPOCH": 88049, "BSTAR": 0.00073259, "MEAN_MOTION_DOT": 3.182e-05, "MEAN_MOTION_DDOT": 0}, "tle": {"line1": "1 34690U 97051KM  25343.63244324  .00003182  00000+0  73259-3 0  9991", "line2": "2 34690  86.3780  38.3417 0011210  38.8624 114.3139 14.55078564880494"}}, "geometry": {"type": "Point", "coordinates": [141.0365994223081, 86.2775714485029]}}, {"type": "Feature", "properties": {"norad_id": 34693, "name": "IRIDIUM 33 DEB", "group": "iridium-33-debris", "lat": -9.405948381690456, "lon": -55.81977635949815, "alt_km": 484.3291064818295, "timestamp": "2025-12-10T18:57:00.450481+00:00", "meta": {"OBJECT_NAME": "IRIDIUM 33 DEB", "OBJECT_ID": "1997-051KQ", "EPOCH": "2025-12-10T08:38:30.910272", "MEAN_MOTION": 15.27015384, "ECCENTRICITY": 0.001442, "INCLINATION": 86.3054, "RA_OF_ASC_NODE": 305.0066, "ARG_OF_PERICENTER": 56.9182, "MEAN_ANOMALY": 94.3145, "EPHEMERIS_TYPE": 0, "CLASSIFICATION_TYPE": "U", "NORAD_CAT_ID": 34693, "ELEMENT_SET_NO": 999, "REV_AT_EPOCH": 88878, "BSTAR": 0.0067186, "MEAN_MOTION_DOT": 0.00182624, "MEAN_MOTION_DDOT": 0}, "tle": {"line1": "1 34693U 97051KQ  25344.36007998  .00182624  00000+0  67186-2 0  9999", "line2": "2 34693  86.3054 305.0066 0014420  56.9182  94.3145 15.27015384888786"}}, "geometry": {"type": "Point", "coordinates": [-55.81977635949815, -9.405948381690456]}}, {"type": "Feature", "properties": {"norad_id": 34696, "name": "IRIDIUM 33 DEB", "group": "iridium-33-debris", "lat": 20.53046761918059, "lon": -153.0026834404061, "alt_km": 626.7776384505278, "timestamp": "2025-12-10T18:57:00.450490+00:00", "meta": {"OBJECT_NAME": "IRIDIUM 33 DEB", "OBJECT_ID": "1997-051KT", "EPOCH": "2025-12-10T03:43:16.862592", "MEAN_MOTION": 14.64869835, "ECCENTRICITY": 0.00742093, "INCLINATION": 86.1846, "RA_OF_ASC_NODE": 28.7244, "ARG_OF_PERICENTER": 176.2548, "MEAN_ANOMALY": 239.1587, "EPHEMERIS_TYPE": 0, "CLASSIFICATION_TYPE": "U", "NORAD_CAT_ID": 34696, "ELEMENT_SET_NO": 999, "REV_AT_EPOCH": 86635, "BSTAR": 0.0072837152, "MEAN_MOTION_DOT": 0.00040722, "MEAN_MOTION_DDOT": 0}, "tle": {"line1": "1 34696U 97051KT  25344.15505628  .00040722  00000+0  72837-2 0  9993", "line2": "2 34696  86.1846  28.7244 0074209 176.2548 239.1587 14.64869835866352"}}, "geometry": {"type": "Point", "coordinates": [-153.0026834404061, 20.53046761918059]}}, {"type": "Feature", "properties": {"norad_id": 34765, "name": "IRIDIUM 33 DEB", "group": "iridium-33-debris", "lat": -41.99591133192321, "lon": -143.0975792428485, "alt_km": 752.8495536858791, "timestamp": "2025-12-10T18:57:00.450501+00:00", "meta": {"OBJECT_NAME": "IRIDIUM 33 DEB", "OBJECT_ID": "1997-051LJ", "EPOCH": "2025-12-10T09:40:41.988000", "MEAN_MOTION": 14.40455804, "ECCENTRICITY": 0.00152, "INCLINATION": 86.3395, "RA_OF_ASC_NODE": 33.7642, "ARG_OF_PERICENTER": 219.5885, "MEAN_ANOMALY": 160.3366, "EPHEMERIS_TYPE": 0, "CLASSIFICATION_TYPE": "U", "NORAD_CAT_ID": 34765, "ELEMENT_SET_NO": 999, "REV_AT_EPOCH": 87580, "BSTAR": 0.0006183, "MEAN_MOTION_DOT": 1.986e-05, "MEAN_MOTION_DDOT": 0}, "tle": {"line1": "1 34765U 97051LJ  25344.40326375  .00001986  00000+0  61830-3 0  9999", "line2": "2 34765  86.3395  33.7642 0015200 219.5885 160.3366 14.40455804875800"}}, "geometry": {"type": "Point", "coordinates": [-143.0975792428485, -41.99591133192321]}}]}